GLOBALSTAR M001         
1 25162U 98008A   25179.66738528 -.00000110  00000+0 -10458-3 0  9994
2 25162  52.0049 299.8109 0000901 255.4350 210.6616 12.38213841245130
GLOBALSTAR M004         
1 25163U 98008B   25179.96103317 -.00000073  00000+0  16833-3 0  9990
2 25163  52.0021  18.2326 0002672 332.6784 178.9400 12.63397618263175
GLOBALSTAR M002         
1 25164U 98008C   25179.78304820 -.00000072  00000+0  80898-4 0  9995
2 25164  51.9981 211.1304 0001577 180.0691 180.0129 11.61510213185411
GLOBALSTAR M014         
1 25306U 98023A   25179.64215138 -.00000083  00000+0 -11084-3 0  9991
2 25306  51.9815 134.4651 0001400  12.8395 157.9362 11.65481396192496
GLOBALSTAR M015         
1 25308U 98023C   25179.72942759 -.00000042  00000+0  70870-3 0  9990
2 25308  51.9829 286.1510 0012916  97.8524  50.2770 11.48860360195408
GLOBALSTAR M008         
1 25309U 98023D   25179.94928181 -.00000106  00000+0 -76044-4 0  9990
2 25309  51.9941 163.9526 0002472 203.4673 174.1062 12.36070880239305
